{
    "bodies": [
        {
            "name": "TNO-471",
            "mass": 0,
            "semi_major_axis": 411.6666666666667,
            "eccentricity": 0.8747619047619049,
            "inclination": 0.3262103482894163,
            "longitude_of_ascending_node": 2.1889274958103035,
            "argument_of_perihelion": 2.581864160100213,
            "mean_anomaly": 4.438888417338884
        },
        {
            "name": "TNO-472",
            "mass": 0,
            "semi_major_axis": 412.22222222222223,
            "eccentricity": 0.874920634920635,
            "inclination": 0.32690293926242997,
            "longitude_of_ascending_node": 5.34598638741659,
            "argument_of_perihelion": 3.4359587668178633,
            "mean_anomaly": 3.8862491211814736
        },
        {
            "name": "TNO-473",
            "mass": 0,
            "semi_major_axis": 412.77777777777777,
            "eccentricity": 0.8750793650793651,
            "inclination": 0.3275955302354436,
            "longitude_of_ascending_node": 1.6721025942287429,
            "argument_of_perihelion": 3.762602239931187,
            "mean_anomaly": 0.5495111767410453
        },
        {
            "name": "TNO-474",
            "mass": 0,
            "semi_major_axis": 413.33333333333337,
            "eccentricity": 0.8752380952380953,
            "inclination": 0.3282881212084572,
            "longitude_of_ascending_node": 4.202952155183775,
            "argument_of_perihelion": 3.1263341356963554,
            "mean_anomaly": 5.872074928381405
        },
        {
            "name": "TNO-475",
            "mass": 0,
            "semi_major_axis": 413.8888888888889,
            "eccentricity": 0.8753968253968254,
            "inclination": 0.32898071218147085,
            "longitude_of_ascending_node": 2.8303476892199857,
            "argument_of_perihelion": 5.812945604465656,
            "mean_anomaly": 4.712536500422057
        },
        {
            "name": "TNO-476",
            "mass": 0,
            "semi_major_axis": 414.44444444444446,
            "eccentricity": 0.8755555555555556,
            "inclination": 0.32967330315448445,
            "longitude_of_ascending_node": 0.17760150110043,
            "argument_of_perihelion": 1.857833180733211,
            "mean_anomaly": 1.6741570337029055
        },
        {
            "name": "TNO-477",
            "mass": 0,
            "semi_major_axis": 415.0,
            "eccentricity": 0.8757142857142858,
            "inclination": 0.33036589412749806,
            "longitude_of_ascending_node": 2.2146608981589497,
            "argument_of_perihelion": 6.277385394075764,
            "mean_anomaly": 3.2908366121474506
        },
        {
            "name": "TNO-478",
            "mass": 0,
            "semi_major_axis": 415.55555555555554,
            "eccentricity": 0.8758730158730159,
            "inclination": 0.33105848510051167,
            "longitude_of_ascending_node": 4.871784871786261,
            "argument_of_perihelion": 1.4916292885670495,
            "mean_anomaly": 4.064684406877058
        },
        {
            "name": "TNO-479",
            "mass": 0,
            "semi_major_axis": 416.11111111111114,
            "eccentricity": 0.876031746031746,
            "inclination": 0.33175107607352533,
            "longitude_of_ascending_node": 4.4762785355534165,
            "argument_of_perihelion": 1.0378719176852091,
            "mean_anomaly": 4.583962850184872
        },
        {
            "name": "TNO-480",
            "mass": 0,
            "semi_major_axis": 416.6666666666667,
            "eccentricity": 0.8761904761904762,
            "inclination": 0.33244366704653894,
            "longitude_of_ascending_node": 3.752948798019607,
            "argument_of_perihelion": 2.932210091604614,
            "mean_anomaly": 3.595739892072476
        },
        {
            "name": "TNO-481",
            "mass": 0,
            "semi_major_axis": 417.22222222222223,
            "eccentricity": 0.8763492063492064,
            "inclination": 0.33313625801955254,
            "longitude_of_ascending_node": 1.9919547424885713,
            "argument_of_perihelion": 5.98877087598467,
            "mean_anomaly": 4.304226011325831
        },
        {
            "name": "TNO-482",
            "mass": 0,
            "semi_major_axis": 417.77777777777777,
            "eccentricity": 0.8765079365079366,
            "inclination": 0.3338288489925662,
            "longitude_of_ascending_node": 0.3129983410346216,
            "argument_of_perihelion": 2.9957790980303303,
            "mean_anomaly": 4.285889188681331
        },
        {
            "name": "TNO-483",
            "mass": 0,
            "semi_major_axis": 418.33333333333337,
            "eccentricity": 0.8766666666666667,
            "inclination": 0.3345214399655798,
            "longitude_of_ascending_node": 0.2262978511726754,
            "argument_of_perihelion": 2.68404654543783,
            "mean_anomaly": 4.15152397861198
        },
        {
            "name": "TNO-484",
            "mass": 0,
            "semi_major_axis": 418.8888888888889,
            "eccentricity": 0.8768253968253968,
            "inclination": 0.3352140309385934,
            "longitude_of_ascending_node": 5.571203920188804,
            "argument_of_perihelion": 5.637675407055913,
            "mean_anomaly": 5.422611950224077
        },
        {
            "name": "TNO-485",
            "mass": 0,
            "semi_major_axis": 419.44444444444446,
            "eccentricity": 0.876984126984127,
            "inclination": 0.33590662191160703,
            "longitude_of_ascending_node": 3.51399798302033,
            "argument_of_perihelion": 3.636170129749777,
            "mean_anomaly": 0.6805698849153282
        },
        {
            "name": "TNO-486",
            "mass": 0,
            "semi_major_axis": 420.0,
            "eccentricity": 0.8771428571428572,
            "inclination": 0.3365992128846207,
            "longitude_of_ascending_node": 2.7431581029298187,
            "argument_of_perihelion": 5.235607491483418,
            "mean_anomaly": 1.0106439076128166
        },
        {
            "name": "TNO-487",
            "mass": 0,
            "semi_major_axis": 420.55555555555554,
            "eccentricity": 0.8773015873015874,
            "inclination": 0.3372918038576343,
            "longitude_of_ascending_node": 3.1067574753837284,
            "argument_of_perihelion": 2.1619899130249407,
            "mean_anomaly": 3.7782242744787533
        },
        {
            "name": "TNO-488",
            "mass": 0,
            "semi_major_axis": 421.11111111111114,
            "eccentricity": 0.8774603174603175,
            "inclination": 0.3379843948306479,
            "longitude_of_ascending_node": 1.96173307765733,
            "argument_of_perihelion": 5.979335964332892,
            "mean_anomaly": 1.5083940461257865
        },
        {
            "name": "TNO-489",
            "mass": 0,
            "semi_major_axis": 421.6666666666667,
            "eccentricity": 0.8776190476190476,
            "inclination": 0.3386769858036615,
            "longitude_of_ascending_node": 2.508918874149381,
            "argument_of_perihelion": 2.889402365590511,
            "mean_anomaly": 1.4649296650959032
        },
        {
            "name": "TNO-490",
            "mass": 0,
            "semi_major_axis": 422.22222222222223,
            "eccentricity": 0.8777777777777778,
            "inclination": 0.3393695767766752,
            "longitude_of_ascending_node": 4.760522806924015,
            "argument_of_perihelion": 1.2507746841374379,
            "mean_anomaly": 2.779382781647082
        },
        {
            "name": "TNO-491",
            "mass": 0,
            "semi_major_axis": 422.77777777777777,
            "eccentricity": 0.877936507936508,
            "inclination": 0.3400621677496888,
            "longitude_of_ascending_node": 2.0616055228553383,
            "argument_of_perihelion": 5.231743085560832,
            "mean_anomaly": 5.476070556800824
        },
        {
            "name": "TNO-492",
            "mass": 0,
            "semi_major_axis": 423.33333333333337,
            "eccentricity": 0.8780952380952382,
            "inclination": 0.3407547587227024,
            "longitude_of_ascending_node": 1.3026660752111405,
            "argument_of_perihelion": 5.499990254780007,
            "mean_anomaly": 1.6782417500795148
        },
        {
            "name": "TNO-493",
            "mass": 0,
            "semi_major_axis": 423.8888888888889,
            "eccentricity": 0.8782539682539683,
            "inclination": 0.34144734969571605,
            "longitude_of_ascending_node": 4.462392174377249,
            "argument_of_perihelion": 1.455695931881357,
            "mean_anomaly": 5.068075499317049
        },
        {
            "name": "TNO-494",
            "mass": 0,
            "semi_major_axis": 424.44444444444446,
            "eccentricity": 0.8784126984126984,
            "inclination": 0.34213994066872966,
            "longitude_of_ascending_node": 1.4654258919489696,
            "argument_of_perihelion": 1.838595053982609,
            "mean_anomaly": 3.8380150908517097
        },
        {
            "name": "TNO-495",
            "mass": 0,
            "semi_major_axis": 425.0,
            "eccentricity": 0.8785714285714286,
            "inclination": 0.34283253164174327,
            "longitude_of_ascending_node": 4.436121965403091,
            "argument_of_perihelion": 3.0263555476852475,
            "mean_anomaly": 2.3977369913441637
        }
    ]
}